[{"OBJECT_NAME":"STARLINK-34776","OBJECT_ID":"2025-161Y","EPOCH":"2026-03-09T22:11:36.569184","MEAN_MOTION":15.30176973,"ECCENTRICITY":0.00011932,"INCLINATION":53.1572,"RA_OF_ASC_NODE":293.2663,"ARG_OF_PERICENTER":55.4742,"MEAN_ANOMALY":304.6371,"EPHEMERIS_TYPE":0,"CLASSIFICATION_TYPE":"U","NORAD_CAT_ID":65037,"ELEMENT_SET_NO":999,"REV_AT_EPOCH":3426,"BSTAR":0.00051644763,"MEAN_MOTION_DOT":0.00014957,"MEAN_MOTION_DDOT":0},{"OBJECT_NAME":"FENGYUN 1C DEB","OBJECT_ID":"1999-025ETT","EPOCH":"2026-03-07T08:30:03.670560","MEAN_MOTION":15.28888299,"ECCENTRICITY":0.00158464,"INCLINATION":99.1103,"RA_OF_ASC_NODE":112.0072,"ARG_OF_PERICENTER":201.0032,"MEAN_ANOMALY":159.0553,"EPHEMERIS_TYPE":0,"CLASSIFICATION_TYPE":"U","NORAD_CAT_ID":38726,"ELEMENT_SET_NO":999,"REV_AT_EPOCH":71135,"BSTAR":0.013792546,"MEAN_MOTION_DOT":0.00409659,"MEAN_MOTION_DDOT":0}]
